0 THORAD DELTA 1 DEB
1 08151U 74089R   13281.50133906  .00000059  00000-0  36566-3 0  8201
2 08151 101.8922 097.2969 0336930 074.8200 355.9045 12.80542062815596
0 THORAD DELTA 1 DEB
1 08151U 74089R   13283.77682596  .00000083  00000-0  44823-3 0  8219
2 08151 101.8919 099.6981 0336937 070.2180 045.7993 12.80542497815886
0 THORAD DELTA 1 DEB
1 08151U 74089R   13286.11820660  .00000030  00000-0  26720-3 0  8225
2 08151 101.8917 102.1688 0336945 065.4840 039.4607 12.80543385816189
0 THORAD DELTA 1 DEB
1 08151U 74089R   13288.14054140  .00000075  00000-0  42242-3 0  8239
2 08151 101.8918 104.3029 0336939 061.4031 002.3368 12.80543832816443
0 THORAD DELTA 1 DEB
1 08151U 74089R   13290.16901137  .00000056  00000-0  35749-3 0  8245
2 08151 101.8919 106.4435 0336941 057.3050 353.4997 12.80544464816705
0 THORAD DELTA 1 DEB
1 08151U 74089R   13292.43028524  .00000065  00000-0  38771-3 0  8256
2 08151 101.8921 108.8296 0336964 052.7326 337.8927 12.80544798816999
0 THORAD DELTA 1 DEB
1 08151U 74089R   13294.46149725  .00000091  00000-0  47879-3 0  8267
2 08151 101.8921 110.9730 0336974 048.6333 341.7011 12.80545261817253
